OBJECT_NAME,OBJECT_ID,EPOCH,MEAN_MOTION,ECCENTRICITY,INCLINATION,RA_OF_ASC_NODE,ARG_OF_PERICENTER,MEAN_ANOMALY,EPHEMERIS_TYPE,CLASSIFICATION_TYPE,NORAD_CAT_ID,ELEMENT_SET_NO,REV_AT_EPOCH,BSTAR,MEAN_MOTION_DOT,MEAN_MOTION_DDOT
SL-8 R/B,1985-006B,2026-07-09T00:30:14.372352,14.37843035,.00192651,74.0450,37.8842,281.8181,238.1093,0,U,15483,999,17146,.47310842E-4,.116E-5,0
SL-12 R/B(2),1985-042D,2026-07-10T00:20:13.969248,14.22010269,.00372201,71.1062,189.2881,293.7918,75.7945,0,U,15772,999,13178,.36618151E-4,.34E-6,0
SL-14 R/B,1985-069B,2026-07-10T04:33:52.230240,14.86533116,.0019735,82.5267,269.7333,142.9100,217.3485,0,U,15945,999,19103,.26378928E-4,.259E-5,0
SL-16 R/B,1985-097B,2026-07-10T03:21:25.066944,14.16612475,.00054343,71.0012,242.7563,61.6528,328.8116,0,U,16182,999,10457,-.69721176E-4,-.187E-5,0
SL-14 R/B,1986-006B,2026-07-10T06:25:30.241632,14.86965979,.00751135,82.5280,144.3938,225.4133,134.0940,0,U,16496,999,16742,.29870341E-4,.307E-5,0
COSMOS 1743,1986-034A,2026-07-10T07:29:26.822400,15.69223519,.000521,82.5274,304.1058,192.4255,167.6879,0,U,16719,999,19941,.38200588E-3,.44608E-3,0
SL-14 R/B,1986-046B,2026-07-10T07:43:10.018272,14.85688315,.00230876,82.4835,324.3148,178.9605,181.1664,0,U,16792,999,14461,.31987889E-4,.303E-5,0
SL-14 R/B,1986-055B,2026-07-09T23:51:38.456640,14.85738073,.00173875,82.5198,11.6868,289.0935,227.4884,0,U,16882,999,13752,.28113121E-4,.269E-5,0
AJISAI (EGS),1986-061A,2026-07-10T06:49:34.726944,12.44516663,.00110989,50.0098,76.3722,239.3644,282.3473,0,U,16908,999,48326,-.1159433E-3,-.114E-5,0
SL-14 R/B,1987-024B,2026-07-09T16:54:31.548384,14.86229136,.00173637,82.5293,338.0842,212.5914,147.4233,0,U,17567,999,10625,.32127515E-4,.307E-5,0
COSMOS 1833,1987-027A,2026-07-08T21:52:25.482720,14.13064435,.00238032,70.9211,71.2080,18.9278,341.2722,0,U,17589,999,2744,.10545344E-3,.149E-5,0
SL-16 R/B,1987-027B,2026-07-09T12:29:48.238944,14.17173721,.00071338,71.0028,19.7646,287.9144,72.1201,0,U,17590,999,3260,-.82450134E-4,-.214E-5,0
SL-14 R/B,1987-038B,2026-07-09T16:40:45.316416,14.85459084,.00206411,82.5007,181.8706,119.0964,241.2323,0,U,17912,999,9734,.28952582E-4,.275E-5,0
COSMOS 1844,1987-041A,2026-07-10T07:13:46.759296,14.14578453,.00316392,70.8994,135.5520,202.1792,157.7963,0,U,17973,999,2092,.14706967E-3,.235E-5,0
SL-14 R/B,1987-055B,2026-07-10T02:55:20.883936,14.85725163,.00197864,82.4974,233.6088,332.7035,27.3139,0,U,18153,999,8811,.24292368E-4,.236E-5,0
COSMOS 1867,1987-060A,2026-07-10T07:50:55.887072,14.31518246,.00170337,65.0120,323.2532,282.0522,77.8653,0,U,18187,999,3749,.9383017E-5,-.75E-6,0
SL-14 R/B,1988-001B,2026-07-10T04:37:35.566464,14.85624864,.00177056,82.5126,80.1300,188.3523,171.7402,0,U,18749,999,6021,.23502576E-4,.228E-5,0
COSMOS 1933,1988-020A,2026-07-09T05:46:16.503456,15.18864555,.00056479,82.5136,130.5950,122.7796,237.3983,0,U,18958,999,6867,.14555623E-3,.3065E-4,0
SL-3 R/B,1988-032B,2026-07-10T06:29:06.069696,15.21008618,.002603,97.5267,174.2912,162.3793,197.8352,0,U,19046,999,7073,.11622131E-3,.2528E-4,0
SL-16 R/B,1988-039B,2026-07-09T16:02:57.786432,14.19632014,.00208919,71.0134,170.6202,158.3712,201.8301,0,U,19120,999,97569,-.29200862E-4,-.11E-5,0
COSMOS 1953,1988-050A,2026-07-10T07:11:31.767936,15.30293403,.00119093,82.5067,34.7202,55.5930,304.6434,0,U,19210,999,5652,.18699302E-3,.5523E-4,0
SL-8 R/B,1988-053B,2026-07-09T12:56:19.483296,14.38976375,.00195391,74.0463,247.8557,35.2363,69.1977,0,U,19257,999,99412,.47394678E-4,.12E-5,0
COSMOS 1975,1988-093A,2026-07-09T17:25:00.044544,15.29619324,.00125618,82.5194,355.0242,99.2739,260.9923,0,U,19573,999,3805,.16207836E-3,.4695E-4,0
SL-14 R/B,1988-093B,2026-07-09T20:21:22.649184,14.85758007,.00204874,82.5317,287.3712,358.3201,137.5416,0,U,19574,999,1915,.25979832E-4,.251E-5,0
SL-16 R/B,1988-102B,2026-07-10T04:09:32.634432,14.16168152,.00145754,70.9987,253.7742,193.3810,166.6929,0,U,19650,999,94423,-.10491177E-3,-.256E-5,0
INTERCOSMOS 24,1989-080A,2026-07-10T06:52:08.142240,12.59690178,.11874588,82.6046,24.6107,8.3390,353.5638,0,U,20261,999,68223,.92730846E-4,.331E-5,0
SL-14 R/B,1989-080C,2026-07-10T02:56:03.300288,12.50577849,.1228522,82.5940,94.5721,264.9008,81.1081,0,U,20262,999,67545,.15360065E-4,.52E-6,0
DELTA 1 R/B,1989-089B,2026-07-09T23:31:30.775584,14.50745796,.00706221,97.0634,18.8908,96.0860,264.8391,0,U,20323,999,91346,.55741818E-4,.192E-5,0
ARIANE 40 R/B,1990-005H,2026-07-10T02:45:12.988224,14.39939292,.00099145,98.2947,248.0166,189.0779,171.0232,0,U,20443,999,91042,.54981344E-4,.131E-5,0
DELTA 2 R/B(1),1990-008B,2026-07-10T00:11:40.932960,15.72802134,.00613932,35.5999,82.5578,327.2040,32.4898,0,U,20453,999,94529,.59121765E-3,.94257E-3,0
