SL-8 R/B                
1 15483U 85006B   26190.02099968  .00000116  00000+0  47311-4 0  9998
2 15483  74.0450  37.8842 0019265 281.8181 238.1093 14.37843035171460
SL-12 R/B(2)            
1 15772U 85042D   26191.01405057  .00000034  00000+0  36618-4 0  9996
2 15772  71.1062 189.2881 0037220 293.7918  75.7945 14.22010269131785
SL-14 R/B               
1 15945U 85069B   26191.19018785  .00000259  00000+0  26379-4 0  9996
2 15945  82.5267 269.7333 0019735 142.9100 217.3485 14.86533116191033
SL-16 R/B               
1 16182U 85097B   26191.13987346 -.00000187  00000+0 -69721-4 0  9993
2 16182  71.0012 242.7563 0005434  61.6528 328.8116 14.16612475104577
SL-14 R/B               
1 16496U 86006B   26191.26771113  .00000307  00000+0  29870-4 0  9992
2 16496  82.5280 144.3938 0075113 225.4133 134.0940 14.86965979167427
COSMOS 1743             
1 16719U 86034A   26191.31211600  .00044608  00000+0  38201-3 0  9996
2 16719  82.5274 304.1058 0005210 192.4255 167.6879 15.69223519199412
SL-14 R/B               
1 16792U 86046B   26191.32164373  .00000303  00000+0  31988-4 0  9995
2 16792  82.4835 324.3148 0023087 178.9605 181.1664 14.85688315144610
SL-14 R/B               
1 16882U 86055B   26190.99419510  .00000269  00000+0  28113-4 0  9990
2 16882  82.5198  11.6868 0017387 289.0935 227.4884 14.85738073137521
AJISAI (EGS)            
1 16908U 86061A   26191.28442971 -.00000114  00000+0 -11594-3 0  9991
2 16908  50.0098  76.3722 0011098 239.3644 282.3473 12.44516663483265
SL-14 R/B               
1 17567U 87024B   26190.70453181  .00000307  00000+0  32128-4 0  9993
2 17567  82.5293 338.0842 0017363 212.5914 147.4233 14.86229136106259
COSMOS 1833             
1 17589U 87027A   26189.91140605  .00000149  00000+0  10545-3 0  9997
2 17589  70.9211  71.2080 0023803  18.9278 341.2722 14.13064435 27440
SL-16 R/B               
1 17590U 87027B   26190.52069721 -.00000214  00000+0 -82450-4 0  9997
2 17590  71.0028  19.7646 0007133 287.9144  72.1201 14.17173721 32602
SL-14 R/B               
1 17912U 87038B   26190.69496894  .00000275  00000+0  28953-4 0  9993
2 17912  82.5007 181.8706 0020641 119.0964 241.2323 14.85459084 97346
COSMOS 1844             
1 17973U 87041A   26191.30123564  .00000235  00000+0  14707-3 0  9991
2 17973  70.8994 135.5520 0031639 202.1792 157.7963 14.14578453 20925
SL-14 R/B               
1 18153U 87055B   26191.12176949  .00000236  00000+0  24292-4 0  9994
2 18153  82.4974 233.6088 0019786 332.7035  27.3139 14.85725163 88113
COSMOS 1867             
1 18187U 87060A   26191.32703573 -.00000075  00000+0  93830-5 0  9995
2 18187  65.0120 323.2532 0017033 282.0522  77.8653 14.31518246 37490
SL-14 R/B               
1 18749U 88001B   26191.19277276  .00000228  00000+0  23503-4 0  9994
2 18749  82.5126  80.1300 0017705 188.3523 171.7402 14.85624864 60216
COSMOS 1933             
1 18958U 88020A   26190.24046879  .00003065  00000+0  14556-3 0  9994
2 18958  82.5136 130.5950 0005647 122.7796 237.3983 15.18864555 68677
SL-3 R/B                
1 19046U 88032B   26191.27020914  .00002528  00000+0  11622-3 0  9996
2 19046  97.5267 174.2912 0026030 162.3793 197.8352 15.21008618 70730
SL-16 R/B               
1 19120U 88039B   26190.66872438 -.00000110  00000+0 -29201-4 0  9994
2 19120  71.0134 170.6202 0020891 158.3712 201.8301 14.19632014975698
COSMOS 1953             
1 19210U 88050A   26191.29967324  .00005523  00000+0  18699-3 0  9995
2 19210  82.5067  34.7202 0011909  55.5930 304.6434 15.30293403 56520
SL-8 R/B                
1 19257U 88053B   26190.53911439  .00000120  00000+0  47395-4 0  9995
2 19257  74.0463 247.8557 0019539  35.2363  69.1977 14.38976375994124
COSMOS 1975             
1 19573U 88093A   26190.72569496  .00004695  00000+0  16208-3 0  9992
2 19573  82.5194 355.0242 0012561  99.2739 260.9923 15.29619324 38050
SL-14 R/B               
1 19574U 88093B   26190.84817881  .00000251  00000+0  25980-4 0  9992
2 19574  82.5317 287.3712 0020487 358.3201 137.5416 14.85758007 19155
SL-16 R/B               
1 19650U 88102B   26191.17329438 -.00000256  00000+0 -10491-3 0  9998
2 19650  70.9987 253.7742 0014575 193.3810 166.6929 14.16168152944236
INTERCOSMOS 24          
1 20261U 89080A   26191.28620535  .00000331  00000+0  92731-4 0  9998
2 20261  82.6046  24.6107 1187458   8.3390 353.5638 12.59690178682238
SL-14 R/B               
1 20262U 89080C   26191.12226042  .00000052  00000+0  15360-4 0  9990
2 20262  82.5940  94.5721 1228522 264.9008  81.1081 12.50577849675455
DELTA 1 R/B             
1 20323U 89089B   26190.98021731  .00000192  00000+0  55742-4 0  9991
2 20323  97.0634  18.8908 0070622  96.0860 264.8391 14.50745796913465
ARIANE 40 R/B           
1 20443U 90005H   26191.11473366  .00000131  00000+0  54981-4 0  9992
2 20443  98.2947 248.0166 0009914 189.0779 171.0232 14.39939292910428
DELTA 2 R/B(1)          
1 20453U 90008B   26191.00811265  .00094257  00000+0  59122-3 0  9991
2 20453  35.5999  82.5578 0061393 327.2040  32.4898 15.72802134945297
